[
  {
    "name": "KUIPER-00093",
    "noradId": "64838",
    "line1": "1 64838U 25151Y   26179.95602941  .00000098  00000+0  41865-4 0  9998",
    "line2": "2 64838  51.8990 161.0575 0000636  68.1850 291.9180 14.79929369 51882"
  },
  {
    "name": "KUIPER-00094",
    "noradId": "64839",
    "line1": "1 64839U 25151Z   26179.80207605  .00014832  00000+0  19698-2 0  9999",
    "line2": "2 64839  51.9039 116.8233 0000956 118.4946 241.6113 14.79943870 52496"
  },
  {
    "name": "KUIPER-00081",
    "noradId": "65132",
    "line1": "1 65132U 25171A   26180.55135627  .00002016  00000+0  29337-3 0  9999",
    "line2": "2 65132  51.9009  13.4216 0000633 114.8648 245.2380 14.79926135 49604"
  },
  {
    "name": "KUIPER-00088",
    "noradId": "65133",
    "line1": "1 65133U 25171B   26179.31694411  .00001011  00000+0  16162-3 0  9999",
    "line2": "2 65133  51.8989  36.3824 0000760 101.9879 258.1169 14.79933673 49179"
  },
  {
    "name": "KUIPER-00095",
    "noradId": "65134",
    "line1": "1 65134U 25171C   26179.81125611  .00003652  00000+0  50806-3 0  9992",
    "line2": "2 65134  51.8982  14.2472 0000592  92.1103 267.9927 14.79910833 49523"
  },
  {
    "name": "KUIPER-00096",
    "noradId": "65135",
    "line1": "1 65135U 25171D   26179.83150735  .00001043  00000+0  16576-3 0  9998",
    "line2": "2 65135  51.8992  26.6040 0000543 104.6012 255.5011 14.79932415 49355"
  },
  {
    "name": "KUIPER-00097",
    "noradId": "65136",
    "line1": "1 65136U 25171E   26179.96390399  .00000864  00000+0  14232-3 0  9992",
    "line2": "2 65136  51.9020  28.6719 0000724 102.7876 257.3167 14.79926287 49321"
  },
  {
    "name": "KUIPER-00098",
    "noradId": "65137",
    "line1": "1 65137U 25171F   26179.96118477  .00001771  00000+0  26124-3 0  9999",
    "line2": "2 65137  51.9019  31.0512 0000740 104.7657 255.3388 14.79937007 48645"
  },
  {
    "name": "KUIPER-00099",
    "noradId": "65138",
    "line1": "1 65138U 25171G   26179.93822167  .00014826  00000+0  19708-2 0  9999",
    "line2": "2 65138  51.9045  21.1559 0000972 105.3671 254.7399 14.79906263 49439"
  },
  {
    "name": "KUIPER-00100",
    "noradId": "65139",
    "line1": "1 65139U 25171H   26179.97465918  .00001466  00000+0  22127-3 0  9997",
    "line2": "2 65139  51.9032  18.4655 0000727 112.5055 247.5985 14.79932872 49476"
  },
  {
    "name": "KUIPER-00102",
    "noradId": "65140",
    "line1": "1 65140U 25171J   26179.97196379 -.00000775  00000+0 -72737-4 0  9998",
    "line2": "2 65140  51.8993  20.9700 0000613 105.3219 254.7811 14.79926250 49435"
  },
  {
    "name": "KUIPER-00103",
    "noradId": "65141",
    "line1": "1 65141U 25171K   26179.91933375  .00003647  00000+0  50715-3 0  9998",
    "line2": "2 65141  51.8998  38.6997 0000734 106.5983 253.5060 14.79933795 49187"
  },
  {
    "name": "KUIPER-00104",
    "noradId": "65142",
    "line1": "1 65142U 25171L   26179.73021432  .00000025  00000+0  32311-4 0  9991",
    "line2": "2 65142  51.9012  27.0297 0000625 101.9621 258.1411 14.79926934 49333"
  },
  {
    "name": "KUIPER-00105",
    "noradId": "65143",
    "line1": "1 65143U 25171M   26179.89096293 -.00000246  00000+0 -33171-5 0  9999",
    "line2": "2 65143  51.9023  33.9251 0000495 101.3123 258.7895 14.79930324 49259"
  },
  {
    "name": "KUIPER-00106",
    "noradId": "65144",
    "line1": "1 65144U 25171N   26180.54694944  .00002403  00000+0  34423-3 0  9995",
    "line2": "2 65144  51.9021   9.7821 0000760 100.7561 259.3487 14.79916981 49657"
  }
]