{"fetchedAt":"2026-06-29T18:07:57.361Z","satellites":[{"id":"64838","name":"KUIPER-00093","constellationId":"kuiper","omm":{"OBJECT_NAME":"KUIPER-00093","OBJECT_ID":"2025-151Y","EPOCH":"2026-06-28T22:56:40.941024","MEAN_MOTION":14.79929369,"ECCENTRICITY":0.00006369,"INCLINATION":51.899,"RA_OF_ASC_NODE":161.0575,"ARG_OF_PERICENTER":68.185,"MEAN_ANOMALY":291.918,"EPHEMERIS_TYPE":0,"CLASSIFICATION_TYPE":"U","NORAD_CAT_ID":64838,"ELEMENT_SET_NO":999,"REV_AT_EPOCH":5188,"BSTAR":0.000041865029,"MEAN_MOTION_DOT":9.8e-7,"MEAN_MOTION_DDOT":0}},{"id":"64839","name":"KUIPER-00094","constellationId":"kuiper","omm":{"OBJECT_NAME":"KUIPER-00094","OBJECT_ID":"2025-151Z","EPOCH":"2026-06-28T19:14:59.370720","MEAN_MOTION":14.7994387,"ECCENTRICITY":0.00009568,"INCLINATION":51.9039,"RA_OF_ASC_NODE":116.8233,"ARG_OF_PERICENTER":118.4946,"MEAN_ANOMALY":241.6113,"EPHEMERIS_TYPE":0,"CLASSIFICATION_TYPE":"U","NORAD_CAT_ID":64839,"ELEMENT_SET_NO":999,"REV_AT_EPOCH":5249,"BSTAR":0.0019697583,"MEAN_MOTION_DOT":0.00014832,"MEAN_MOTION_DDOT":0}},{"id":"65132","name":"KUIPER-00081","constellationId":"kuiper","omm":{"OBJECT_NAME":"KUIPER-00081","OBJECT_ID":"2025-171A","EPOCH":"2026-06-29T13:13:57.181728","MEAN_MOTION":14.79926135,"ECCENTRICITY":0.0000633,"INCLINATION":51.9009,"RA_OF_ASC_NODE":13.4216,"ARG_OF_PERICENTER":114.8648,"MEAN_ANOMALY":245.238,"EPHEMERIS_TYPE":0,"CLASSIFICATION_TYPE":"U","NORAD_CAT_ID":65132,"ELEMENT_SET_NO":999,"REV_AT_EPOCH":4960,"BSTAR":0.00029337,"MEAN_MOTION_DOT":0.00002016,"MEAN_MOTION_DDOT":0}},{"id":"65133","name":"KUIPER-00088","constellationId":"kuiper","omm":{"OBJECT_NAME":"KUIPER-00088","OBJECT_ID":"2025-171B","EPOCH":"2026-06-28T07:36:23.971104","MEAN_MOTION":14.79933673,"ECCENTRICITY":0.00007606,"INCLINATION":51.8989,"RA_OF_ASC_NODE":36.3824,"ARG_OF_PERICENTER":101.9879,"MEAN_ANOMALY":258.1169,"EPHEMERIS_TYPE":0,"CLASSIFICATION_TYPE":"U","NORAD_CAT_ID":65133,"ELEMENT_SET_NO":999,"REV_AT_EPOCH":4917,"BSTAR":0.00016161551,"MEAN_MOTION_DOT":0.00001011,"MEAN_MOTION_DDOT":0}},{"id":"65134","name":"KUIPER-00095","constellationId":"kuiper","omm":{"OBJECT_NAME":"KUIPER-00095","OBJECT_ID":"2025-171C","EPOCH":"2026-06-28T19:28:12.527904","MEAN_MOTION":14.79910833,"ECCENTRICITY":0.00005927,"INCLINATION":51.8982,"RA_OF_ASC_NODE":14.2472,"ARG_OF_PERICENTER":92.1103,"MEAN_ANOMALY":267.9927,"EPHEMERIS_TYPE":0,"CLASSIFICATION_TYPE":"U","NORAD_CAT_ID":65134,"ELEMENT_SET_NO":999,"REV_AT_EPOCH":4952,"BSTAR":0.00050805671,"MEAN_MOTION_DOT":0.00003652,"MEAN_MOTION_DDOT":0}},{"id":"65135","name":"KUIPER-00096","constellationId":"kuiper","omm":{"OBJECT_NAME":"KUIPER-00096","OBJECT_ID":"2025-171D","EPOCH":"2026-06-28T19:57:22.235040","MEAN_MOTION":14.79932415,"ECCENTRICITY":0.00005432,"INCLINATION":51.8992,"RA_OF_ASC_NODE":26.604,"ARG_OF_PERICENTER":104.6012,"MEAN_ANOMALY":255.5011,"EPHEMERIS_TYPE":0,"CLASSIFICATION_TYPE":"U","NORAD_CAT_ID":65135,"ELEMENT_SET_NO":999,"REV_AT_EPOCH":4935,"BSTAR":0.00016576295,"MEAN_MOTION_DOT":0.00001043,"MEAN_MOTION_DDOT":0}},{"id":"65136","name":"KUIPER-00097","constellationId":"kuiper","omm":{"OBJECT_NAME":"KUIPER-00097","OBJECT_ID":"2025-171E","EPOCH":"2026-06-28T23:08:01.304736","MEAN_MOTION":14.79926287,"ECCENTRICITY":0.00007247,"INCLINATION":51.902,"RA_OF_ASC_NODE":28.6719,"ARG_OF_PERICENTER":102.7876,"MEAN_ANOMALY":257.3167,"EPHEMERIS_TYPE":0,"CLASSIFICATION_TYPE":"U","NORAD_CAT_ID":65136,"ELEMENT_SET_NO":999,"REV_AT_EPOCH":4932,"BSTAR":0.000142319,"MEAN_MOTION_DOT":0.00000864,"MEAN_MOTION_DDOT":0}},{"id":"65137","name":"KUIPER-00098","constellationId":"kuiper","omm":{"OBJECT_NAME":"KUIPER-00098","OBJECT_ID":"2025-171F","EPOCH":"2026-06-28T23:04:06.364128","MEAN_MOTION":14.79937007,"ECCENTRICITY":0.00007402,"INCLINATION":51.9019,"RA_OF_ASC_NODE":31.0512,"ARG_OF_PERICENTER":104.7657,"MEAN_ANOMALY":255.3388,"EPHEMERIS_TYPE":0,"CLASSIFICATION_TYPE":"U","NORAD_CAT_ID":65137,"ELEMENT_SET_NO":999,"REV_AT_EPOCH":4864,"BSTAR":0.00026124066,"MEAN_MOTION_DOT":0.00001771,"MEAN_MOTION_DDOT":0}},{"id":"65138","name":"KUIPER-00099","constellationId":"kuiper","omm":{"OBJECT_NAME":"KUIPER-00099","OBJECT_ID":"2025-171G","EPOCH":"2026-06-28T22:31:02.352288","MEAN_MOTION":14.79906263,"ECCENTRICITY":0.00009729,"INCLINATION":51.9045,"RA_OF_ASC_NODE":21.1559,"ARG_OF_PERICENTER":105.3671,"MEAN_ANOMALY":254.7399,"EPHEMERIS_TYPE":0,"CLASSIFICATION_TYPE":"U","NORAD_CAT_ID":65138,"ELEMENT_SET_NO":999,"REV_AT_EPOCH":4943,"BSTAR":0.0019707973,"MEAN_MOTION_DOT":0.00014826,"MEAN_MOTION_DDOT":0}},{"id":"65139","name":"KUIPER-00100","constellationId":"kuiper","omm":{"OBJECT_NAME":"KUIPER-00100","OBJECT_ID":"2025-171H","EPOCH":"2026-06-28T23:23:30.553152","MEAN_MOTION":14.79932872,"ECCENTRICITY":0.00007273,"INCLINATION":51.9032,"RA_OF_ASC_NODE":18.4655,"ARG_OF_PERICENTER":112.5055,"MEAN_ANOMALY":247.5985,"EPHEMERIS_TYPE":0,"CLASSIFICATION_TYPE":"U","NORAD_CAT_ID":65139,"ELEMENT_SET_NO":999,"REV_AT_EPOCH":4947,"BSTAR":0.00022126646,"MEAN_MOTION_DOT":0.00001466,"MEAN_MOTION_DDOT":0}},{"id":"65140","name":"KUIPER-00102","constellationId":"kuiper","omm":{"OBJECT_NAME":"KUIPER-00102","OBJECT_ID":"2025-171J","EPOCH":"2026-06-28T23:19:37.671456","MEAN_MOTION":14.7992625,"ECCENTRICITY":0.0000613,"INCLINATION":51.8993,"RA_OF_ASC_NODE":20.97,"ARG_OF_PERICENTER":105.3219,"MEAN_ANOMALY":254.7811,"EPHEMERIS_TYPE":0,"CLASSIFICATION_TYPE":"U","NORAD_CAT_ID":65140,"ELEMENT_SET_NO":999,"REV_AT_EPOCH":4943,"BSTAR":-0.000072736915,"MEAN_MOTION_DOT":-0.00000775,"MEAN_MOTION_DDOT":0}},{"id":"65141","name":"KUIPER-00103","constellationId":"kuiper","omm":{"OBJECT_NAME":"KUIPER-00103","OBJECT_ID":"2025-171K","EPOCH":"2026-06-28T22:03:50.436000","MEAN_MOTION":14.79933795,"ECCENTRICITY":0.00007341,"INCLINATION":51.8998,"RA_OF_ASC_NODE":38.6997,"ARG_OF_PERICENTER":106.5983,"MEAN_ANOMALY":253.506,"EPHEMERIS_TYPE":0,"CLASSIFICATION_TYPE":"U","NORAD_CAT_ID":65141,"ELEMENT_SET_NO":999,"REV_AT_EPOCH":4918,"BSTAR":0.00050715319,"MEAN_MOTION_DOT":0.00003647,"MEAN_MOTION_DDOT":0}},{"id":"65142","name":"KUIPER-00104","constellationId":"kuiper","omm":{"OBJECT_NAME":"KUIPER-00104","OBJECT_ID":"2025-171L","EPOCH":"2026-06-28T17:31:30.517248","MEAN_MOTION":14.79926934,"ECCENTRICITY":0.00006259,"INCLINATION":51.9012,"RA_OF_ASC_NODE":27.0297,"ARG_OF_PERICENTER":101.9621,"MEAN_ANOMALY":258.1411,"EPHEMERIS_TYPE":0,"CLASSIFICATION_TYPE":"U","NORAD_CAT_ID":65142,"ELEMENT_SET_NO":999,"REV_AT_EPOCH":4933,"BSTAR":0.00003231138,"MEAN_MOTION_DOT":2.5e-7,"MEAN_MOTION_DDOT":0}},{"id":"65143","name":"KUIPER-00105","constellationId":"kuiper","omm":{"OBJECT_NAME":"KUIPER-00105","OBJECT_ID":"2025-171M","EPOCH":"2026-06-28T21:22:59.197152","MEAN_MOTION":14.79930324,"ECCENTRICITY":0.00004954,"INCLINATION":51.9023,"RA_OF_ASC_NODE":33.9251,"ARG_OF_PERICENTER":101.3123,"MEAN_ANOMALY":258.7895,"EPHEMERIS_TYPE":0,"CLASSIFICATION_TYPE":"U","NORAD_CAT_ID":65143,"ELEMENT_SET_NO":999,"REV_AT_EPOCH":4925,"BSTAR":-0.000003317145,"MEAN_MOTION_DOT":-0.00000246,"MEAN_MOTION_DDOT":0}},{"id":"65144","name":"KUIPER-00106","constellationId":"kuiper","omm":{"OBJECT_NAME":"KUIPER-00106","OBJECT_ID":"2025-171N","EPOCH":"2026-06-29T13:07:36.431616","MEAN_MOTION":14.79916981,"ECCENTRICITY":0.000076,"INCLINATION":51.9021,"RA_OF_ASC_NODE":9.7821,"ARG_OF_PERICENTER":100.7561,"MEAN_ANOMALY":259.3487,"EPHEMERIS_TYPE":0,"CLASSIFICATION_TYPE":"U","NORAD_CAT_ID":65144,"ELEMENT_SET_NO":999,"REV_AT_EPOCH":4965,"BSTAR":0.00034423,"MEAN_MOTION_DOT":0.00002403,"MEAN_MOTION_DDOT":0}}]}